ORBCOMM FM05            
1 25117U 97084F   25199.51437850  .00000701  00000+0  23534-3 0  9990
2 25117  45.0131 217.6327 0003269 318.5762  41.4841 14.46009138446082
ORBCOMM FM06            
1 25118U 97084G   25199.46252689  .00000806  00000+0  26383-3 0  9991
2 25118  45.0124 217.5859 0002792 301.0643 205.6810 14.46142926446059
ORBCOMM FM07            
1 25119U 97084H   25199.72414215  .00000778  00000+0  25600-3 0  9995
2 25119  45.0120 217.0972 0004007 325.7166  34.3426 14.46141596446109
ORBCOMM FM03            
1 25158U 98007B   25199.50441230  .00000663  00000+0  27816-3 0  9991
2 25158 107.9665 199.9371 0045254 196.3068 163.6617 14.34557459428538
ORBCOMM FM04            
1 25159U 98007C   25199.48322907  .00000599  00000+0  25540-3 0  9998
2 25159 107.9655 203.1369 0040975 193.9978 166.0029 14.34803611428719
ORBCOMM FM17            
1 25413U 98046A   25199.44601617  .00000523  00000+0  23059-3 0  9998
2 25413  44.9943 110.0744 0004109   0.1640 359.9208 14.35135906407668
ORBCOMM FM18            
1 25414U 98046B   25199.87815605  .00000787  00000+0  30074-3 0  9997
2 25414  44.9941  24.5843 0005108  89.4859 270.6574 14.38615553408983
ORBCOMM FM19            
1 25415U 98046C   25199.55840859  .00000706  00000+0  27572-3 0  9992
2 25415  44.9951  28.1501 0003868  83.3487 313.1896 14.38423086408727
